NORAD_CAT_ID,OBJECT_NAME,OBJECT_TYPE,EPOCH,MEAN_MOTION,ECCENTRICITY,INCLINATION,RA_OF_ASC_NODE,ARG_OF_PERICENTER,MEAN_ANOMALY,BSTAR,MEAN_MOTION_DOT,MEAN_MOTION_DDOT,TLE_LINE0,TLE_LINE1,TLE_LINE2,SEMIMAJOR_AXIS,PERIOD,APOGEE,PERIGEE,DECAYED
56469.0,STARLINK-5518,PAYLOAD,2024-08-09 11:28:35,14.98332332,0.0001797,70.0047,140.0109,288.5364,71.56,4.1234e-05,3.99e-06,0.0,0 STARLINK-5518,1 56469U 23064X   24222.47818380  .00000399  00000-0  41234-4 0  9995,2 56469  70.0047 140.0109 0001797 288.5364  71.5600 14.98332332 69636,6950.186,96.107,573.3,570.802,0.0
56469.0,STARLINK-5518,PAYLOAD,2024-08-09 21:05:23,14.98333612,0.0002621,70.0012,139.0038,265.8829,94.203,1.807e-05,1.23e-06,0.0,0 STARLINK-5518,1 56469U 23064X   24222.87873966  .00000123  00000-0  18070-4 0  9997,2 56469  70.0012 139.0038 0002621 265.8829  94.2030 14.98333612 69336,6950.182,96.107,573.868,570.225,0.0
56469.0,STARLINK-5518,PAYLOAD,2024-08-10 05:06:02,14.98338931,0.0002476,70.0013,138.1617,265.7866,94.301,9.3684e-05,1.025e-05,0.0,0 STARLINK-5518,1 56469U 23064X   24223.21253397  .00001025  00000-0  93684-4 0  9992,2 56469  70.0013 138.1617 0002476 265.7866  94.3010 14.98338931 69741,6950.165,96.106,573.751,570.309,0.0
56469.0,STARLINK-5518,PAYLOAD,2024-08-10 22:43:31,14.98334115,0.0002688,70.0019,136.3106,252.4526,107.6339,8.7181e-05,9.48e-06,0.0,0 STARLINK-5518,1 56469U 23064X   24223.94689329  .00000948  00000-0  87181-4 0  9998,2 56469  70.0019 136.3106 0002688 252.4526 107.6339 14.98334115 69495,6950.18,96.107,573.913,570.177,0.0
56469.0,STARLINK-5518,PAYLOAD,2024-08-11 11:32:36,14.9833468,0.000171,70.0024,134.9618,289.6917,70.4057,-4.0311e-05,-5.74e-06,0.0,0 STARLINK-5518,1 56469U 23064X   24224.48097607 -.00000574  00000-0 -40311-4 0  9991,2 56469  70.0024 134.9618 0001710 289.6917  70.4057 14.98334680 69934,6950.178,96.107,573.232,570.855,0.0
56469.0,STARLINK-5518,PAYLOAD,2024-08-11 22:45:32,14.98332631,0.0002318,70.0031,133.7806,279.3846,80.7051,0.0002082,2.392e-05,0.0,0 STARLINK-5518,1 56469U 23064X   24224.94829426  .00002392  00000-0  20820-3 0  9994,2 56469  70.0031 133.7806 0002318 279.3846  80.7051 14.98332631 69640,6950.185,96.107,573.661,570.439,0.0
56469.0,STARLINK-5518,PAYLOAD,2024-08-12 03:33:55,14.98346592,0.0002847,70.0014,133.2805,262.566,97.5176,0.00031302,3.645e-05,0.0,0 STARLINK-5518,1 56469U 23064X   24225.14856447  .00003645  00000-0  31302-3 0  9999,2 56469  70.0014 133.2805 0002847 262.5660  97.5176 14.98346592 70030,6950.142,96.106,573.985,570.028,0.0
56469.0,STARLINK-5518,PAYLOAD,2024-08-12 11:34:38,14.98314515,0.0002313,70.0003,132.4366,268.1037,91.9857,-9.4672e-05,-1.222e-05,0.0,0 STARLINK-5518,1 56469U 23064X   24225.48239194 -.00001222  00000-0 -94672-4 0  9991,2 56469  70.0003 132.4366 0002313 268.1037  91.9857 14.98314515 70088,6950.241,96.108,573.713,570.498,0.0
56469.0,STARLINK-5518,PAYLOAD,2024-08-12 21:11:27,14.98296889,0.0001876,70.0018,131.4258,264.3047,95.7898,-0.00036622,-4.456e-05,0.0,0 STARLINK-5518,1 56469U 23064X   24225.88296217 -.00004456  00000-0 -36622-3 0  9996,2 56469  70.0018 131.4258 0001876 264.3047  95.7898 14.98296889 70142,6950.295,96.109,573.464,570.856,0.0
56469.0,STARLINK-5518,PAYLOAD,2024-08-12 22:47:36,14.98299108,0.0001623,70.0026,131.2582,261.3179,98.7797,-0.00028514,-3.49e-05,0.0,0 STARLINK-5518,1 56469U 23064X   24225.94972285 -.00003490  00000-0 -28514-3 0  9997,2 56469  70.0026 131.2582 0001623 261.3179  98.7797 14.98299108 69799,6950.288,96.109,573.281,571.025,0.0
56469.0,STARLINK-5518,PAYLOAD,2024-08-13 03:35:58,14.98325102,0.0002822,70.0007,130.7546,273.079,87.0047,4.3724e-05,4.29e-06,0.0,0 STARLINK-5518,1 56469U 23064X   24226.14998799  .00000429  00000-0  43724-4 0  9996,2 56469  70.0007 130.7546 0002822 273.0790  87.0047 14.98325102 70181,6950.208,96.107,574.034,570.112,0.0
56469.0,STARLINK-5518,PAYLOAD,2024-08-13 11:36:40,14.98305771,0.0002995,70.002,129.9134,269.1931,90.8885,-0.00034079,-4.154e-05,0.0,0 STARLINK-5518,1 56469U 23064X   24226.48380245 -.00004154  00000-0 -34079-3 0  9997,2 56469  70.0020 129.9134 0002995 269.1931  90.8885 14.98305771 70231,6950.268,96.109,574.214,570.051,0.0
56469.0,STARLINK-5518,PAYLOAD,2024-08-13 22:49:38,14.98300514,0.0002313,70.003,128.7384,286.9599,73.1306,-9.9876e-05,-1.283e-05,0.0,0 STARLINK-5518,1 56469U 23064X   24226.95113753 -.00001283  00000-0 -99876-4 0  9994,2 56469  70.0030 128.7384 0002313 286.9599  73.1306 14.98300514 69945,6950.284,96.109,573.757,570.541,0.0
56469.0,STARLINK-5518,PAYLOAD,2024-08-14 03:38:02,14.98311764,0.0002454,70.002,128.2324,280.2881,79.8002,5.1175e-05,5.17e-06,0.0,0 STARLINK-5518,1 56469U 23064X   24227.15141383  .00000517  00000-0  51175-4 0  9994,2 56469  70.0020 128.2324 0002454 280.2881  79.8002 14.98311764 70330,6950.249,96.108,573.82,570.409,0.0
56469.0,STARLINK-5518,PAYLOAD,2024-08-14 19:39:22,14.98328527,0.0002946,70.0004,126.5473,270.2349,89.8472,0.0010004,0.00011863,0.0,0 STARLINK-5518,1 56469U 23064X   24227.81901068  .00011863  00000-0  10004-2 0  9991,2 56469  70.0004 126.5473 0002946 270.2349  89.8472 14.98328527 70430,6950.197,96.107,574.11,570.015,0.0
56469.0,STARLINK-5518,PAYLOAD,2024-08-14 22:51:38,14.98349795,0.0002698,70.0018,126.2106,268.6775,91.4075,0.0011365,0.000135,0.0,0 STARLINK-5518,1 56469U 23064X   24227.95252680  .00013500  00000-0  11365-2 0  9996,2 56469  70.0018 126.2106 0002698 268.6775  91.4075 14.98349795 70093,6950.132,96.106,573.872,570.122,0.0
56469.0,STARLINK-5518,PAYLOAD,2024-08-15 03:40:01,14.98377096,0.0002912,70.0014,125.7063,265.8048,94.2779,0.0018221,0.00021742,0.0,0 STARLINK-5518,1 56469U 23064X   24228.15279978  .00021742  00000-0  18221-2 0  9993,2 56469  70.0014 125.7063 0002912 265.8048  94.2779 14.98377096 70486,6950.047,96.104,573.936,569.888,0.0
56469.0,STARLINK-5518,PAYLOAD,2024-08-15 10:04:33,14.9836707,0.0002623,70.0022,125.0329,268.186,91.8998,0.00071956,8.511e-05,0.0,0 STARLINK-5518,1 56469U 23064X   24228.41983526  .00008511  00000-0  71956-3 0  9997,2 56469  70.0022 125.0329 0002623 268.1860  91.8998 14.98367070 70162,6950.078,96.105,573.766,570.12,0.0
56469.0,STARLINK-5518,PAYLOAD,2024-08-15 22:53:37,14.98367062,0.0002548,70.0024,123.6875,264.6376,95.4492,0.00029627,3.447e-05,0.0,0 STARLINK-5518,1 56469U 23064X   24228.95390324  .00003447  00000-0  29627-3 0  9995,2 56469  70.0024 123.6875 0002548 264.6376  95.4492 14.98367062 70242,6950.078,96.105,573.714,570.172,0.0
56469.0,STARLINK-5518,PAYLOAD,2024-08-16 02:05:53,14.98365529,0.0002457,70.0025,123.3511,267.1772,92.9106,0.00044993,5.284e-05,0.0,0 STARLINK-5518,1 56469U 23064X   24229.08742227  .00005284  00000-0  44993-3 0  9997,2 56469  70.0025 123.3511 0002457 267.1772  92.9106 14.98365529 70626,6950.083,96.105,573.656,570.24,0.0
56469.0,STARLINK-5518,PAYLOAD,2024-08-16 21:19:29,14.9835269,0.0003021,70.0017,121.3306,252.4379,107.645,-1.8583e-05,-3.15e-06,0.0,0 STARLINK-5518,1 56469U 23064X   24229.88853274 -.00000315  00000-0 -18583-4 0  9999,2 56469  70.0017 121.3306 0003021 252.4379 107.6450 14.98352690 70749,6950.123,96.106,574.087,569.888,0.0
56469.0,STARLINK-5518,PAYLOAD,2024-08-17 02:07:53,14.98350142,0.0003113,70.0014,120.825,268.6589,91.4214,3.4922e-05,3.24e-06,0.0,0 STARLINK-5518,1 56469U 23064X   24230.08881282  .00000324  00000-0  34922-4 0  9996,2 56469  70.0014 120.8250 0003113 268.6589  91.4214 14.98350142 70414,6950.131,96.106,574.159,569.832,0.0
56469.0,STARLINK-5518,PAYLOAD,2024-08-17 16:33:06,14.98337473,0.00023,70.0035,119.3107,277.9972,82.0926,-6.6143e-05,-8.82e-06,0.0,0 STARLINK-5518,1 56469U 23064X   24230.68965689 -.00000882  00000-0 -66143-4 0  9997,2 56469  70.0035 119.3107 0002300 277.9972  82.0926 14.98337473 70864,6950.17,96.107,573.633,570.436,0.0
56469.0,STARLINK-5518,PAYLOAD,2024-08-18 02:09:54,14.9834,0.0002755,70.0018,118.3,266.7636,93.3208,-0.00023996,-2.956e-05,0.0,0 STARLINK-5518,1 56469U 23064X   24231.09021437 -.00002956  00000-0 -23996-3 0  9999,2 56469  70.0018 118.3000 0002755 266.7636  93.3208 14.98340000 70568,6950.162,96.106,573.942,570.112,0.0
56469.0,STARLINK-5518,PAYLOAD,2024-08-18 21:23:31,14.98333236,0.000289,70.0,116.2795,264.1161,95.9669,0.00014999,1.697e-05,0.0,0 STARLINK-5518,1 56469U 23064X   24231.89133503  .00001697  00000-0  14999-3 0  9997,2 56469  70.0000 116.2795 0002890 264.1161  95.9669 14.98333236 71048,6950.183,96.107,574.056,570.039,0.0
56469.0,STARLINK-5518,PAYLOAD,2024-08-19 10:12:35,14.98333005,0.0002936,70.0012,114.9322,272.617,87.4653,0.00012428,1.39e-05,0.0,0 STARLINK-5518,1 56469U 23064X   24232.42541503  .00001390  00000-0  12428-3 0  9995,2 56469  70.0012 114.9322 0002936 272.6170  87.4653 14.98333005 70768,6950.184,96.107,574.089,570.008,0.0
56469.0,STARLINK-5518,PAYLOAD,2024-08-19 21:25:32,14.98329117,0.0002909,69.9999,113.7537,270.6718,89.4107,0.00010126,1.115e-05,0.0,0 STARLINK-5518,1 56469U 23064X   24232.89273842  .00001115  00000-0  10126-3 0  9992,2 56469  69.9999 113.7537 0002909 270.6718  89.4107 14.98329117 71193,6950.196,96.107,574.082,570.039,0.0
56469.0,STARLINK-5518,PAYLOAD,2024-08-20 02:13:56,14.9832872,0.0002888,69.9999,113.2488,270.4534,89.6294,8.5878e-05,9.32e-06,0.0,0 STARLINK-5518,1 56469U 23064X   24233.09301912  .00000932  00000-0  85878-4 0  9998,2 56469  69.9999 113.2488 0002888 270.4534  89.6294 14.98328720 70864,6950.197,96.107,574.069,570.055,0.0
56469.0,STARLINK-5518,PAYLOAD,2024-08-21 02:15:56,14.98340362,0.0002967,69.9996,110.7245,271.7896,88.2923,0.00011477,1.277e-05,0.0,0 STARLINK-5518,1 56469U 23064X   24234.09440854  .00001277  00000-0  11477-3 0  9994,2 56469  69.9996 110.7245 0002967 271.7896  88.2923 14.98340362 71374,6950.161,96.106,574.088,569.964,0.0
56469.0,STARLINK-5518,PAYLOAD,2024-08-21 19:53:26,14.98326387,0.0002785,69.9999,108.8737,275.7533,84.3309,7.4955e-05,8.01e-06,0.0,0 STARLINK-5518,1 56469U 23064X   24234.82877937  .00000801  00000-0  74955-4 0  9994,2 56469  69.9999 108.8737 0002785 275.7533  84.3309 14.98326387 71489,6950.204,96.107,574.005,570.133,0.0
